STARLINK-30189
1 57430U 23105A   26092.83335647  .00644485  00000+0  40477-2 0  9992
2 57430  42.9991  94.1699 0001488 256.3215 175.2717 15.74097959  5975
